APRIZESAT 2             
1 28366U 04025A   26159.30889238  .00000168  00000+0  65582-4 0  9994
2 28366  98.1008 325.7923 0104277 276.9718  81.9619 14.38032519150360
SAUDICOMSAT 1           
1 28369U 04025D   26159.49170551  .00000438  00000+0  11126-3 0  9992
2 28369  98.5772 169.3885 0033128  51.6411 308.7754 14.55467033162868
SAUDICOMSAT 2           
1 28370U 04025E   26159.29227594  .00000287  00000+0  85536-4 0  9991
2 28370  98.6642 171.2865 0054163 287.0157  72.5106 14.49976201158813
APRIZESAT 1             
1 28372U 04025G   26159.26596742  .00000213  00000+0  64462-4 0  9998
2 28372  98.6304 169.7487 0044543 180.7541 179.3593 14.51772631160610
NANOSAT-1               
1 28493U 04049B   26159.31330417  .00001085  00000+0  15025-3 0  9997
2 28493  98.2265 295.7580 0003307 339.3427  20.7650 14.80142322154131
SAUDICOMSAT 7           
1 31119U 07012C   26159.44517656  .00000513  00000+0  10097-3 0  9994
2 31119  98.3774 133.3981 0054745 222.9207 136.7717 14.66102089 21150
SAUDICOMSAT 6           
1 31121U 07012E   26159.12811239  .00000765  00000+0  15553-3 0  9997
2 31121  98.4094 126.4764 0071724 356.1140   3.9495 14.62547488 18867
SAUDICOMSAT 5           
1 31124U 07012H   26159.43080235  .00000598  00000+0  11149-3 0  9999
2 31124  98.3485 134.1326 0047976 151.7459 208.6363 14.68146202 22315
SAUDICOMSAT 3           
1 31125U 07012J   26159.40657865  .00000883  00000+0  15186-3 0  9998
2 31125  98.3138 134.6570 0040510  80.1187 280.4588 14.70691330 23539
SAUDICOMSAT 4           
1 31127U 07012L   26159.47765760  .00000552  00000+0  11128-3 0  9996
2 31127  98.3978 131.8706 0062099 286.0241  73.4127 14.64503567 20013
APRIZESAT 4             
1 35684U 09041D   26159.49091174  .00000686  00000+0  88428-4 0  9991
2 35684  98.1412 234.6381 0043016 351.6681   8.3813 14.83868035910070
APRIZESAT 3             
1 35686U 09041F   26159.40513803  .00001288  00000+0  11559-3 0  9991
2 35686  98.2053 312.2095 0062740  95.9665 264.8710 14.96216040915060
S-NET D                 
1 43186U 18014G   26159.22505095  .00004960  00000+0  25717-3 0  9990
2 43186  97.5366  64.0715 0009659  57.2163 302.9999 15.16587158457404
S-NET B                 
1 43187U 18014H   26158.97240562  .00005447  00000+0  28230-3 0  9991
2 43187  97.5372  63.8067 0010253  53.5740 306.6437 15.16556524457367
S-NET A                 
1 43188U 18014J   26158.69614311  .00006167  00000+0  31878-3 0  9990
2 43188  97.5380  63.7393 0010161  54.8789 305.3395 15.16591754457322
S-NET C                 
1 43189U 18014K   26159.50408245  .00005031  00000+0  26093-3 0  9991
2 43189  97.5399  64.6158 0011322  45.4040 314.8115 15.16552894455996
SALSAT                  
1 46495U 20068K   26158.98778249  .00008175  00000+0  28698-3 0  9996
2 46495  97.8853 161.4934 0008911 345.1768  14.9208 15.29667638313959
OOV-CUBE (TUBSAT-30)    
1 60240U 24128F   26159.47184501  .00002491  00000+0  19712-3 0  9990
2 60240  61.9950 255.9620 0045737 131.8030 228.6982 15.02736717104804
LPNTSAT-001 (IOD-1)     
1 68408U 26065A   26159.11494435  .00003202  00000+0  15797-3 0  9997
2 68408  97.4030  39.8162 0017570  40.9414 319.3136 15.18490907 10889
